BRITE-AUSTRIA           
1 39091U 13009F   26170.29768615  .00000120  00000+0  55501-4 0  9997
2 39091  98.3996 349.6811 0009231 229.4697 130.5686 14.36542792697356
NEE-01 PEGASO           
1 39151U 13018B   26170.34231826  .00002563  00000+0  24786-3 0  9992
2 39151  98.1228 314.5632 0013307 152.2100 207.9832 14.93669357711025
POPACS 2                
1 39269U 13055E   26170.25665990  .00012578  00000+0  21242-3 0  9997
2 39269  80.9911 141.8234 0416748 187.1255 172.3929 14.91258090663525
POPACS 3                
1 39270U 13055F   26170.59311065  .00008231  00000+0  19342-3 0  9996
2 39270  80.9999 226.5792 0551932  62.6747 302.9521 14.56159845638903
ZACUBE-1 (TSHEPISOSAT)  
1 39417U 13066B   26170.47359992  .00002409  00000+0  18943-3 0  9996
2 39417  97.8074 132.8224 0041095 239.8049 119.9102 15.01199188681075
WNISAT-1                
1 39423U 13066H   26170.33851001  .00000735  00000+0  14261-3 0  9995
2 39423  97.7205 319.3421 0162084 224.7704 134.0323 14.58065536667045
TRITON-1                
1 39427U 13066M   26170.59169000  .00001794  00000+0  21971-3 0  9990
2 39427  97.8246  80.3441 0088565 225.9441 133.4455 14.81714065674449
GOMX-1                  
1 39430U 13066Q   26170.50113065  .00001376  00000+0  21150-3 0  9990
2 39430  97.6476  10.8173 0130107  70.2331 291.2853 14.69467011670257
CUBEBUG-2 (LO-74)       
1 39440U 13066AA  26170.60863938  .00004144  00000+0  38373-3 0  9994
2 39440  97.8909 119.5969 0058232  21.2784 339.0838 14.93780108677351
NEE-02 KRYSAOR          
1 39441U 13066AB  26170.49766013  .00002047  00000+0  22767-3 0  9998
2 39441  97.8893 109.6957 0067575  62.8163 297.9919 14.86626623676548
FUNCUBE-1 (AO-73)       
1 39444U 13066AE  26170.37665816  .00004964  00000+0  30928-3 0  9995
2 39444  97.8280 141.8681 0035834 193.1795 166.8500 15.09511616679998
UWE-3                   
1 39446U 13066AG  26170.48821017  .00003847  00000+0  33187-3 0  9995
2 39446  97.8700 126.5771 0047259 313.4566  46.2728 14.97040725677922
